{
  "norad_id": 54846,
  "name": "STARLINK-5360",
  "history": [
    {
      "epoch": "2026-04-15T20:00:01.999008Z",
      "apogee_km": 484.25404847356185,
      "perigee_km": 481.9184880730418,
      "latitude_deg": 12.46358466860225,
      "longitude_deg": 152.50520794838272,
      "height_km": 482.4803947804287,
      "semi_major_axis_km": 6861.223268273302,
      "eccentricity": 0.0001702,
      "inclination_deg": 42.9996,
      "raan_deg": 282.8694,
      "arg_perigee_deg": 269.3262,
      "mean_anomaly_deg": 109.0766,
      "mean_motion_rev_day": 15.27567586
    },
    {
      "epoch": "2026-04-16T11:36:48.070080Z",
      "apogee_km": 484.4032698013534,
      "perigee_km": 481.7081932964011,
      "latitude_deg": -1.4096232719415865e-05,
      "longitude_deg": -99.640749670528,
      "height_km": 483.1041051861903,
      "semi_major_axis_km": 6861.1927315488765,
      "eccentricity": 0.0001964,
      "inclination_deg": 43.0008,
      "raan_deg": 279.1905,
      "arg_perigee_deg": 258.3894,
      "mean_anomaly_deg": 101.6737,
      "mean_motion_rev_day": 15.27577784
    },
    {
      "epoch": "2026-04-17T12:43:18.668352Z",
      "apogee_km": 484.2506561882183,
      "perigee_km": 481.97628888158306,
      "latitude_deg": -3.640420499922047e-06,
      "longitude_deg": -123.20619916522654,
      "height_km": 482.9602116322411,
      "semi_major_axis_km": 6861.250472534901,
      "eccentricity": 0.00016574,
      "inclination_deg": 43.0012,
      "raan_deg": 273.2837,
      "arg_perigee_deg": 266.4858,
      "mean_anomaly_deg": 93.5804,
      "mean_motion_rev_day": 15.27558501
    },
    {
      "epoch": "2026-04-18T16:58:07.123296Z",
      "apogee_km": 484.25274719336085,
      "perigee_km": 481.83898306140964,
      "latitude_deg": -1.9109933601471033e-05,
      "longitude_deg": 165.2849347069044,
      "height_km": 482.8787223638716,
      "semi_major_axis_km": 6861.182865127385,
      "eccentricity": 0.0001759,
      "inclination_deg": 43.0015,
      "raan_deg": 266.6368,
      "arg_perigee_deg": 267.3544,
      "mean_anomaly_deg": 92.7106,
      "mean_motion_rev_day": 15.27581079
    },
    {
      "epoch": "2026-04-19T16:30:28.190592Z",
      "apogee_km": 484.19623877313916,
      "perigee_km": 481.91420623993326,
      "latitude_deg": -7.278498574340522e-06,
      "longitude_deg": 165.68994606443627,
      "height_km": 483.1592276022649,
      "semi_major_axis_km": 6861.1922225065355,
      "eccentricity": 0.0001663,
      "inclination_deg": 43.0011,
      "raan_deg": 261.0963,
      "arg_perigee_deg": 253.3427,
      "mean_anomaly_deg": 106.7242,
      "mean_motion_rev_day": 15.27577954
    },
    {
      "epoch": "2026-04-20T11:20:21.278400Z",
      "apogee_km": 484.3570938719604,
      "perigee_km": 481.7754975199223,
      "latitude_deg": 4.059776324366532e-05,
      "longitude_deg": -121.9846821815659,
      "height_km": 482.9871141745761,
      "semi_major_axis_km": 6861.203295695941,
      "eccentricity": 0.00018813,
      "inclination_deg": 43.002,
      "raan_deg": 256.6662,
      "arg_perigee_deg": 263.6152,
      "mean_anomaly_deg": 96.4486,
      "mean_motion_rev_day": 15.27574256
    },
    {
      "epoch": "2026-04-20T20:45:17.618400Z",
      "apogee_km": 484.1460844968333,
      "perigee_km": 481.99386109360603,
      "latitude_deg": -1.3050412849814952e-05,
      "longitude_deg": 94.17762273631811,
      "height_km": 483.10530163307635,
      "semi_major_axis_km": 6861.206972795219,
      "eccentricity": 0.00015684,
      "inclination_deg": 43.0007,
      "raan_deg": 254.45,
      "arg_perigee_deg": 256.1016,
      "mean_anomaly_deg": 103.9661,
      "mean_motion_rev_day": 15.27573028
    }
  ]
}